ORBCOMM FM20            
1 25416U 98046D   25228.52219964  .00000506  00000+0  21538-3 0  9994
2 25416  44.9931 255.5206 0003220 259.3095 100.7391 14.37301605412946
ORBCOMM FM16            
1 25417U 98046E   25228.51548607  .00000736  00000+0  28177-3 0  9994
2 25417  44.9925 246.3241 0006882 254.5582 105.4506 14.39035825412942
ORBCOMM FM15            
1 25418U 98046F   25228.50663315  .00000723  00000+0  27966-3 0  9999
2 25418  44.9958 251.6923 0006556 254.1458 105.8668 14.38678047412931
ORBCOMM FM14            
1 25419U 98046G   25228.50915584  .00000794  00000+0  30032-3 0  9994
2 25419  44.9945 249.7427 0005349 254.0082 106.0177 14.39046193412903
ORBCOMM FM13            
1 25420U 98046H   25228.39809855  .00000636  00000+0  25607-3 0  9993
2 25420  44.9966 258.8371 0007053 235.6840 124.3341 14.37778971411907
ORBCOMM FM21            
1 25475U 98053A   25228.62677922  .00000642  00000+0  25977-3 0  9992
2 25475  45.0100 343.2532 0002896 190.1730 169.9060 14.37445365405948
ORBCOMM FM22            
1 25476U 98053B   25228.61958817  .00000868  00000+0  32764-3 0  9999
2 25476  45.0090 337.6481 0004680 184.4548 175.6260 14.38510771405977
ORBCOMM FM23            
1 25477U 98053C   25228.61966446  .00000780  00000+0  30442-3 0  9991
2 25477  45.0098 345.3234 0003801 181.0937 178.9903 14.37639654406092
